[
    {
        "Altitude(m)": 612513.9042341565,
        "Argument of Periapsis(deg)": 0.0,
        "Eccentricity": 0.0,
        "Inclination(deg)": 60.0,
        "Latitude(deg)": -28.135874683258383,
        "Longitude(deg)": 52.91315591455386,
        "Mean Anomaly(deg)": -147.2727,
        "RAAN(deg)": 315.0,
        "Satellite Name": "Test1 1399",
        "Satellite Number": 1399,
        "Semi-Major Axis(m)": 6980739.136638005,
        "Time(s)": 0
    },
    {
        "Altitude(m)": 612708.2717353737,
        "Argument of Periapsis(deg)": 0.00010418945913296404,
        "Eccentricity": 0.0,
        "Inclination(deg)": 60.0,
        "Latitude(deg)": -28.647613369256465,
        "Longitude(deg)": 53.270386876879805,
        "Mean Anomaly(deg)": -146.65259385453814,
        "RAAN(deg)": 314.99957995086027,
        "Satellite Name": "Test1 1399",
        "Satellite Number": 1399,
        "Semi-Major Axis(m)": 6980739.136638005,
        "Time(s)": 10
    }
]